     2              NAVIGATION DATA                         RINEX VERSION / TYPE
CCRINEXN V1.6.0 UX  CDDIS               05-JUN-24 16:31     PGM / RUN BY / DATE 
IGS BROADCAST EPHEMERIS FILE                                COMMENT             
    0.2142D-07  0.2235D-07 -0.1192D-06 -0.5960D-07          ION ALPHA           
    0.1290D+06  0.1311D+06 -0.1966D+06 -0.6554D+05          ION BETA            
   -0.465661287308D-08-0.888178419700D-14   405504     2317 DELTA-UTC: A0,A1,T,W
    18                                                      LEAP SECONDS        
                                                            END OF HEADER       
16 24  6  4  4  0  0.0-0.273838639259D-03 0.103455022327D-10 0.000000000000D+00
    0.570000000000D+02 0.114968750000D+03 0.408016995546D-08-0.160214651348D+01
    0.596791505814D-05 0.138227556599D-01 0.982731580734D-05 0.515357888031D+04
    0.187200000000D+06 0.283122062683D-06-0.111233681284D+00-0.968575477600D-07
    0.962290289607D+00 0.191312500000D+03 0.837396022666D+00-0.769532054099D-08
   -0.746459664470D-10 0.100000000000D+01 0.231700000000D+04 0.000000000000D+00
    0.200000000000D+01 0.000000000000D+00-0.102445483208D-07 0.570000000000D+02
    0.187008000000D+06 0.400000000000D+01 0.000000000000D+00 0.000000000000D+00
18 24  6  4  4  0  0.0-0.620247796178D-03-0.522959453519D-11 0.000000000000D+00
    0.350000000000D+02-0.121718750000D+03 0.417053086221D-08 0.181396317851D+01
   -0.634416937828D-05 0.416084541939D-02 0.439211726189D-05 0.515360966873D+04
    0.187200000000D+06-0.391155481338D-07 0.191513090231D+01-0.558793544769D-08
    0.974374657107D+00 0.302593750000D+03-0.305203302675D+01-0.806926468869D-08
   -0.256439253153D-09 0.100000000000D+01 0.231700000000D+04 0.000000000000D+00
    0.200000000000D+01 0.000000000000D+00-0.838190317154D-08 0.803000000000D+03
    0.180018000000D+06 0.400000000000D+01 0.000000000000D+00 0.000000000000D+00
19 24  6  4  4  0  0.0 0.491484533995D-03 0.534328137292D-11 0.000000000000D+00
    0.520000000000D+02 0.450937500000D+02 0.454197490577D-08-0.520821505598D+00
    0.235065817833D-05 0.989817047957D-02 0.102445483208D-05 0.515370606995D+04
    0.187200000000D+06-0.912696123123D-07 0.953947594032D+00-0.316649675369D-06
    0.967984524144D+00 0.367593750000D+03 0.255216013939D+01-0.850535428215D-08
    0.115719105880D-09 0.100000000000D+01 0.231700000000D+04 0.000000000000D+00
    0.200000000000D+01 0.000000000000D+00-0.153668224812D-07 0.520000000000D+02
    0.180018000000D+06 0.400000000000D+01 0.000000000000D+00 0.000000000000D+00
20 24  6  4  4  0  0.0 0.374215189367D-03-0.454747350886D-12 0.000000000000D+00
    0.690000000000D+02-0.912187500000D+02 0.426910639685D-08 0.221090489233D+01
   -0.457279384136D-05 0.358285824768D-02 0.117495656014D-04 0.515380838394D+04
    0.187200000000D+06-0.113621354103D-06 0.276708454713D+01-0.745058059692D-08
    0.954250292263D+00 0.145687500000D+03-0.259405772112D+01-0.783711216147D-08
    0.402873924173D-09 0.100000000000D+01 0.231700000000D+04 0.000000000000D+00
    0.200000000000D+01 0.000000000000D+00-0.838190317154D-08 0.690000000000D+02
    0.180018000000D+06 0.400000000000D+01 0.000000000000D+00 0.000000000000D+00
21 24  6  4  4  0  0.0 0.117622781545D-03-0.227373675443D-11 0.000000000000D+00
    0.590000000000D+02-0.116812500000D+03 0.430053627745D-08-0.265553211209D+01
   -0.558793544769D-05 0.251566271763D-01 0.444240868092D-05 0.515368723488D+04
    0.187200000000D+06-0.227242708206D-06 0.180541510971D+01 0.339001417160D-06
    0.961393674431D+00 0.292718750000D+03-0.565974994376D+00-0.790854370830D-08
   -0.186436337250D-09 0.100000000000D+01 0.231700000000D+04 0.000000000000D+00
    0.200000000000D+01 0.000000000000D+00-0.102445483208D-07 0.590000000000D+02
    0.180018000000D+06 0.400000000000D+01 0.000000000000D+00 0.000000000000D+00
22 24  6  4  4  0  0.0-0.226916745305D-04-0.500222085975D-11 0.000000000000D+00
    0.680000000000D+02 0.138531250000D+03 0.409659921123D-08-0.198777674869D+01
    0.707805156708D-05 0.142682071310D-01 0.103153288364D-04 0.515371410561D+04
    0.187200000000D+06-0.745058059692D-07-0.107939131252D+00 0.344589352608D-06
    0.961609124228D+00 0.182906250000D+03-0.113477476799D+01-0.781461122421D-08
   -0.148577617426D-09 0.100000000000D+01 0.231700000000D+04 0.000000000000D+00
    0.200000000000D+01 0.000000000000D+00-0.111758708954D-07 0.680000000000D+02
    0.182226000000D+06 0.400000000000D+01 0.000000000000D+00 0.000000000000D+00
23 24  6  4  4  0  0.0 0.241848174483D-03 0.920863385545D-11 0.000000000000D+00
    0.610000000000D+02-0.636562500000D+02 0.387016120775D-08 0.613299158074D+00
   -0.329688191414D-05 0.419348001014D-02 0.115502625704D-04 0.515372143936D+04
    0.187200000000D+06 0.707805156708D-07 0.291582966282D+01 0.465661287308D-07
    0.979706681904D+00 0.169718750000D+03-0.297040105832D+01-0.759460205995D-08
    0.422874757288D-09 0.100000000000D+01 0.231700000000D+04 0.000000000000D+00
    0.200000000000D+01 0.000000000000D+00-0.838190317154D-08 0.610000000000D+02
    0.180018000000D+06 0.400000000000D+01 0.000000000000D+00 0.000000000000D+00
24 24  6  4  4  0  0.0-0.475192442536D-03-0.284217094304D-11 0.000000000000D+00
    0.280000000000D+02-0.312812500000D+02 0.549737184475D-08 0.193537255222D+01
   -0.189058482647D-05 0.153219104977D-01 0.781193375587D-05 0.515370694351D+04
    0.187200000000D+06-0.264495611191D-06-0.134176996517D+01-0.348314642906D-06
    0.933551155684D+00 0.216656250000D+03 0.980334823818D+00-0.835534803378D-08
   -0.592167523297D-09 0.100000000000D+01 0.231700000000D+04 0.000000000000D+00
    0.200000000000D+01 0.000000000000D+00 0.232830643654D-08 0.280000000000D+02
    0.181938000000D+06 0.400000000000D+01 0.000000000000D+00 0.000000000000D+00
25 24  6  4  4  0  0.0 0.496827065945D-03 0.568434188608D-12 0.000000000000D+00
    0.800000000000D+01 0.100937500000D+03 0.451804533758D-08 0.157760314710D+00
    0.538863241673D-05 0.116216832539D-01 0.111274421215D-04 0.515379165077D+04
    0.187200000000D+06-0.130385160446D-06-0.215689127678D+00 0.163912773132D-06
    0.950719589218D+00 0.159593750000D+03 0.109020915431D+01-0.815533970263D-08
   -0.219294848796D-09 0.100000000000D+01 0.231700000000D+04 0.000000000000D+00
    0.200000000000D+01 0.000000000000D+00 0.512227416039D-08 0.800000000000D+01
    0.182616000000D+06 0.400000000000D+01 0.000000000000D+00 0.000000000000D+00
26 24  6  4  4  0  0.0 0.142619479448D-03-0.602540239925D-11 0.000000000000D+00
    0.810000000000D+02 0.877812500000D+02 0.486198823561D-08-0.646203620609D+00
    0.452809035778D-05 0.887376710307D-02 0.104866921902D-04 0.515365555763D+04
    0.187200000000D+06 0.149011611938D-06-0.278268824934D+00 0.124797224999D-06
    0.931453171701D+00 0.162968750000D+03 0.541730082307D+00-0.824462913618D-08
   -0.313227332890D-09 0.100000000000D+01 0.231700000000D+04 0.000000000000D+00
    0.200000000000D+01 0.000000000000D+00 0.651925802231D-08 0.810000000000D+02
    0.185592000000D+06 0.400000000000D+01 0.000000000000D+00 0.000000000000D+00
27 24  6  4  4  0  0.0-0.268914736807D-04-0.147792889038D-11 0.000000000000D+00
    0.780000000000D+02 0.746250000000D+02 0.448018661776D-08-0.244550445836D+01
    0.389851629734D-05 0.125342243118D-01 0.131875276566D-05 0.515368408012D+04
    0.187200000000D+06 0.104308128357D-06 0.841291388763D+00-0.838190317154D-07
    0.962118864867D+00 0.355937500000D+03 0.796298022220D+00-0.820855620503D-08
    0.250724729406D-09 0.100000000000D+01 0.231700000000D+04 0.000000000000D+00
    0.200000000000D+01 0.000000000000D+00 0.186264514923D-08 0.780000000000D+02
    0.180018000000D+06 0.400000000000D+01 0.000000000000D+00 0.000000000000D+00
28 24  6  4  4  0  0.0-0.273260287940D-03-0.170530256582D-10 0.000000000000D+00
    0.870000000000D+02-0.307812500000D+02 0.482698677766D-08-0.453567195523D+00
   -0.138022005558D-05 0.324714696035D-03 0.807456672192D-05 0.515365424919D+04
    0.187200000000D+06 0.745058059692D-08-0.127757910796D+01-0.558793544769D-07
    0.960985603673D+00 0.221062500000D+03 0.167899934799D+01-0.810426614664D-08
   -0.643598237021D-09 0.100000000000D+01 0.231700000000D+04 0.000000000000D+00
    0.200000000000D+01 0.000000000000D+00-0.931322574616D-08 0.855000000000D+03
    0.180018000000D+06 0.400000000000D+01 0.000000000000D+00 0.000000000000D+00
29 24  6  4  4  0  0.0-0.595738179982D-03 0.159161572810D-11 0.000000000000D+00
    0.300000000000D+02 0.684375000000D+02 0.447411493627D-08-0.249851690544D+01
    0.352971255779D-05 0.295930763241D-02 0.129826366901D-05 0.515358551216D+04
    0.187200000000D+06-0.372529029846D-07 0.924646528405D+00 0.931322574615D-07
    0.971240555542D+00 0.360156250000D+03 0.255566163967D+01-0.836499129261D-08
    0.132148361653D-09 0.100000000000D+01 0.231700000000D+04 0.000000000000D+00
    0.200000000000D+01 0.000000000000D+00-0.977888703346D-08 0.300000000000D+02
    0.180018000000D+06 0.400000000000D+01 0.000000000000D+00 0.000000000000D+00
30 24  6  4  4  0  0.0-0.379884615541D-03 0.602540239925D-11 0.000000000000D+00
    0.450000000000D+02-0.171562500000D+02 0.541986861643D-08 0.766728228783D+00
   -0.648200511932D-06 0.716754875611D-02 0.836700201034D-05 0.515363026237D+04
    0.187200000000D+06 0.409781932831D-07-0.124405879641D+01 0.521540641785D-07
    0.935052803057D+00 0.204031250000D+03-0.246059717791D+01-0.845428072616D-08
   -0.732530512836D-09 0.100000000000D+01 0.231700000000D+04 0.000000000000D+00
    0.200000000000D+01 0.000000000000D+00 0.419095158577D-08 0.450000000000D+02
    0.180018000000D+06 0.400000000000D+01 0.000000000000D+00 0.000000000000D+00
